OBJECT_NAME,OBJECT_ID,EPOCH,MEAN_MOTION,ECCENTRICITY,INCLINATION,RA_OF_ASC_NODE,ARG_OF_PERICENTER,MEAN_ANOMALY,EPHEMERIS_TYPE,CLASSIFICATION_TYPE,NORAD_CAT_ID,ELEMENT_SET_NO,REV_AT_EPOCH,BSTAR,MEAN_MOTION_DOT,MEAN_MOTION_DDOT
STARLINK-31501,2024-060M,2026-06-05T04:48:19.447776,15.27573946,.0000814,43.0006,125.8862,284.6453,75.4309,0,U,59359,999,12344,.8563E-5,-.26E-6,0
STARLINK-31549,2024-060N,2026-06-01T22:57:16.771968,15.27575404,.0001141,42.9987,143.6770,189.8470,170.2360,0,U,59360,999,12295,.1091468E-4,.38E-6,0
STARLINK-31560,2024-060P,2026-06-05T04:39:03.688416,15.27578236,.0000841,43.0009,125.8303,268.5586,91.5169,0,U,59361,999,12344,.22601E-4,.36E-5,0
STARLINK-31571,2024-060Q,2026-06-01T08:07:31.777536,15.27573389,.00011797,43.0012,147.6380,274.0579,86.0138,0,U,59362,999,12285,.28638691E-4,.526E-5,0
STARLINK-31553,2024-060R,2026-06-05T00:00:02.000160,15.27594073,.0001348,42.9997,119.8912,261.0050,156.4298,0,U,59363,999,577,.17964E-3,.4686E-4,0
STARLINK-31547,2024-060S,2026-06-01T23:15:48.657024,15.27578240,.00009055,42.9992,132.5251,270.3820,89.6928,0,U,59364,999,12308,.2204873E-4,.345E-5,0
STARLINK-31537,2024-060T,2026-06-05T04:53:51.471744,15.27578552,.0000665,42.9990,125.9071,269.3213,90.7562,0,U,59365,999,12344,-.57287E-5,-.419E-5,0
STARLINK-31451,2024-060U,2026-06-01T08:44:19.781376,15.27569792,.00010577,43.0025,146.9744,256.2068,103.8666,0,U,59366,999,12286,.13782954E-4,.117E-5,0
STARLINK-31428,2024-060V,2026-06-01T23:08:23.105184,15.27573715,.00016426,43.0044,143.7405,290.4400,69.6275,0,U,59367,999,12295,.38317066E-4,.792E-5,0
STARLINK-31419,2024-060W,2026-06-01T09:10:13.243872,15.27582029,.00015717,43.0038,147.1061,272.0714,87.9958,0,U,59368,999,12286,.13986969E-3,.3589E-4,0
STARLINK-31583,2024-060X,2026-06-01T08:14:58.443072,15.27544825,.0001045,43.0040,136.4357,253.4091,106.6646,0,U,59369,999,12298,.24943227E-3,.6601E-4,0
STARLINK-31461,2024-060Y,2026-06-01T08:31:35.209632,15.27592630,.00011496,43.0023,136.5179,274.9393,85.1328,0,U,59370,999,12292,.304162E-3,.812E-4,0
RESURS-P 4,2024-061A,2026-06-05T04:19:45.213024,15.32060864,.0001249,97.2750,104.2894,130.0292,230.1060,0,U,59371,999,12192,.12053E-3,.3654E-4,0
STARLINK-31641,2024-062A,2026-06-03T12:02:09.034080,15.34383897,.0001258,53.1598,218.9248,118.3817,241.7313,0,U,59374,999,12277,.65915E-5,-.154E-5,0
STARLINK-31430,2024-062B,2026-06-03T11:25:55.248096,15.34389846,.00009359,53.1599,219.4746,131.0803,229.0281,0,U,59375,999,12277,.33070671E-4,.741E-5,0
STARLINK-31695,2024-062C,2026-06-03T11:07:04.197792,15.30200303,.00009386,53.1580,217.2603,84.9720,275.1388,0,U,59376,999,12276,.62031653E-4,.1479E-4,0
STARLINK-31716,2024-062D,2026-06-04T05:07:51.501792,15.30189956,.00013786,53.1589,165.1279,134.7236,225.3877,0,U,59377,999,12355,-.589128E-5,-.534E-5,0
STARLINK-31710,2024-062E,2026-06-04T18:13:47.470080,15.34172835,.00014992,53.1583,211.1308,91.7348,268.3826,0,U,59378,999,12296,.31451328E-2,.106634E-2,0
STARLINK-31698,2024-062F,2026-06-03T10:39:42.136416,15.34363907,.00018047,53.1572,217.1523,35.0406,325.0715,0,U,59379,999,12276,-.86929775E-4,-.3309E-4,0
STARLINK-31680,2024-062G,2026-06-03T10:37:26.555808,15.34388813,.00010065,53.1590,219.2642,72.7297,287.3816,0,U,59380,999,12273,.12851317E-4,.58E-6,0
STARLINK-31713,2024-062H,2026-06-03T11:59:07.449792,15.34393710,.0001415,53.1598,218.9126,65.7858,294.3293,0,U,59381,999,12274,.35558E-4,.825E-5,0
STARLINK-31705,2024-062J,2026-06-05T04:00:03.000096,15.34373069,.0000597,53.1588,209.2943,88.6472,326.8243,0,U,59382,999,579,.9972E-3,.33437E-3,0
STARLINK-31715,2024-062L,2026-06-03T10:53:23.197344,15.30202083,.00012253,53.1594,217.2012,125.4948,234.6167,0,U,59384,999,12280,.56296936E-4,.1309E-4,0
STARLINK-31717,2024-062M,2026-06-03T10:54:49.050432,15.34391065,.00010852,53.1608,217.2074,78.1715,281.9409,0,U,59385,999,12279,.33878314E-4,.768E-5,0
STARLINK-31688,2024-062N,2026-06-03T10:34:24.505824,15.34393095,.00009894,53.1599,219.2570,89.1522,270.9594,0,U,59386,999,12273,.2940116E-4,.617E-5,0
STARLINK-31714,2024-062P,2026-06-03T10:45:44.277696,15.34377289,.00009254,53.1596,217.1667,111.5251,248.5850,0,U,59387,999,12275,.11007175E-3,.3342E-4,0
STARLINK-31643,2024-062Q,2026-06-05T04:00:03.000096,15.34389402,.0001024,53.1597,209.1571,100.5363,24.7143,0,U,59388,999,580,.47019E-3,.15538E-3,0
STARLINK-31647,2024-062R,2026-06-03T11:43:33.591072,15.30190401,.0001118,53.1599,217.4549,80.8974,279.2154,0,U,59389,999,12280,.10654E-4,-.44E-6,0
STARLINK-31649,2024-062S,2026-06-05T04:00:03.000096,15.33298012,.0000255,53.1595,209.3146,169.4945,235.4408,0,U,59390,999,580,.35632E-1,.1270917E-1,0
STARLINK-31644,2024-062T,2026-06-03T11:22:53.454720,15.34393435,.00012076,53.1611,219.4646,85.6400,274.4740,0,U,59391,999,12277,.34770419E-4,.798E-5,0
STARLINK-31626,2024-062U,2026-06-03T10:48:50.883552,15.30188795,.00008234,53.1578,217.1776,76.2024,283.9068,0,U,59392,999,12280,.2676099E-5,-.28E-5,0
STARLINK-31443,2024-062V,2026-06-03T10:53:58.512480,15.34392792,.00012307,53.1582,203.5313,74.2663,285.8475,0,U,59393,999,12299,.49837232E-4,.1308E-4,0
STARLINK-31607,2024-062W,2026-06-01T10:22:17.938848,15.30202481,.00011148,53.1595,226.6239,57.7222,302.3886,0,U,59394,999,12248,-.3124716E-4,-.1284E-4,0
YAOGAN-42 01,2024-063A,2026-06-04T13:46:50.935296,15.23056620,.00041402,34.9959,205.1530,213.9664,146.0786,0,U,59395,999,12092,.33832538E-3,.8138E-4,0
STARLINK-31608,2024-062X,2026-06-03T11:40:30.002304,15.30195135,.0001296,53.1604,217.4018,87.4503,272.6646,0,U,59397,999,12275,.16042E-4,.116E-5,0
STARLINK-31534,2024-064A,2026-06-05T01:39:28.415232,15.27578162,.0001202,43.0024,282.3304,247.1444,112.9281,0,U,59398,999,12253,.36143E-4,.733E-5,0
STARLINK-31544,2024-064B,2026-06-05T01:19:19.617024,15.27576241,.000154,43.0031,283.0873,267.8238,92.2437,0,U,59399,999,12258,.89227E-5,-.17E-6,0
STARLINK-31545,2024-064C,2026-06-01T17:54:08.698464,15.27580363,.00010103,43.0018,301.2508,256.2162,103.8577,0,U,59400,999,12208,-.2875219E-4,-.1053E-4,0
STARLINK-31507,2024-064D,2026-06-02T09:44:56.707296,15.27578054,.00012576,43.0015,297.6015,237.3277,122.7453,0,U,59401,999,12212,.48888335E-4,.1083E-4,0
STARLINK-31543,2024-064E,2026-06-05T01:08:11.839200,15.27582606,.0002095,43.0030,283.0276,284.3385,75.7234,0,U,59402,999,12258,.22838E-4,.366E-5,0
STARLINK-31366,2024-064F,2026-06-01T21:28:21.457920,15.27575509,.00013366,42.9982,300.6426,209.4729,150.6047,0,U,59403,999,12210,.61579249E-4,.1433E-4,0
STARLINK-31374,2024-064G,2026-06-01T14:42:03.654720,15.27576008,.00013804,43.0003,251.1610,243.6012,116.4698,0,U,59404,999,12239,.98047389E-4,.2437E-4,0
STARLINK-31400,2024-064H,2026-06-05T01:45:01.600416,15.27575631,.0001001,43.0036,282.3606,276.1433,83.9305,0,U,59405,999,12259,.29472E-4,.549E-5,0
STARLINK-31391,2024-064J,2026-06-05T01:50:34.110816,15.27581142,.0001446,43.0035,282.3874,260.7488,99.3200,0,U,59406,999,12259,.43328E-4,.93E-5,0
STARLINK-31387,2024-064K,2026-06-05T01:13:46.659936,15.27575197,.0001259,43.0034,283.0562,276.9033,83.1676,0,U,59407,999,12258,.66671E-5,-.79E-6,0
STARLINK-31396,2024-064M,2026-06-05T00:33:18.253152,15.27583034,.0000776,43.0005,272.4552,313.4327,46.6460,0,U,59409,999,12264,.53491E-4,.121E-4,0
STARLINK-31412,2024-064N,2026-06-01T18:14:30.576768,15.27571542,.00009711,42.9985,301.3575,345.7516,14.3308,0,U,59410,999,12208,-.231253E-5,-.326E-5,0
STARLINK-31483,2024-064P,2026-06-05T00:58:57.545184,15.27586356,.0001591,43.0017,282.9752,259.2387,100.8285,0,U,59411,999,12258,.68661E-4,.1628E-4,0
STARLINK-31568,2024-064Q,2026-06-05T01:02:40.953120,15.27564595,.0000915,42.9973,282.9981,48.7246,311.3684,0,U,59412,999,12258,-.25191E-4,-.955E-5,0
STARLINK-31615,2024-064R,2026-06-05T00:52:56.961696,15.27576418,.0001038,43.0012,276.0071,271.6278,88.4455,0,U,59413,999,12266,.45822E-5,-.136E-5,0
STARLINK-31457,2024-064S,2026-06-05T00:56:40.159680,15.27559787,.0001043,43.0028,276.0167,269.1710,90.9022,0,U,59414,999,12266,-.89285E-4,-.2716E-4,0
STARLINK-31398,2024-064T,2026-06-01T18:08:56.825664,15.27577132,.0001055,42.9998,301.3221,249.0138,111.0601,0,U,59415,999,12208,.8988198E-4,.2212E-4,0
STARLINK-31399,2024-064U,2026-06-01T17:59:41.792064,15.27573074,.00010333,43.0012,301.2710,258.9394,101.1341,0,U,59416,999,12208,.3120977E-4,.597E-5,0
STARLINK-31401,2024-064V,2026-06-05T00:47:24.141120,15.27595533,.0001574,43.0020,275.9893,262.3096,97.7577,0,U,59417,999,12241,.11206E-3,.2824E-4,0
STARLINK-31414,2024-064W,2026-06-05T00:53:25.211904,15.27582937,.0001194,42.9993,282.9473,286.8831,73.1890,0,U,59418,999,12258,.4153E-4,.881E-5,0
STARLINK-31415,2024-064X,2026-06-05T01:30:26.205984,15.27578202,.0000732,43.0035,283.1442,307.6089,52.4696,0,U,59419,999,12258,.30221E-4,.57E-5,0
STARLINK-31466,2024-064Y,2026-06-05T01:24:52.075584,15.27576911,.0001632,43.0029,283.1159,270.6320,89.4345,0,U,59420,999,12258,.78744E-5,-.46E-6,0
STARLINK-11087 [DTC],2024-065A,2026-06-02T19:56:27.002976,15.69713300,.00010269,53.1580,34.3029,125.6945,234.4168,0,U,59421,999,12488,.14516693E-4,.1171E-4,0
STARLINK-11090 [DTC],2024-065B,2026-05-31T23:16:26.949504,15.69692061,.00006634,53.1586,43.3066,78.7219,281.3873,0,U,59422,999,12461,-.7911791E-5,-.1545E-4,0
STARLINK-11093 [DTC],2024-065C,2026-06-02T19:42:19.564128,15.69711623,.00013653,53.1589,34.2345,37.7241,322.3873,0,U,59423,999,12489,.9896667E-5,.61E-5,0
STARLINK-11083 [DTC],2024-065D,2026-06-02T19:49:22.874016,15.69711748,.00008583,53.1566,34.2711,172.4334,187.6697,0,U,59424,999,12484,.24107473E-4,.2333E-4,0
STARLINK-11085 [DTC],2024-065E,2026-06-02T19:28:12.119232,15.69704845,.00010883,53.1590,34.1755,87.8854,272.2288,0,U,59425,999,12484,-.657793E-6,-.668E-5,0
STARLINK-11089 [DTC],2024-065F,2026-06-02T20:03:31.095648,15.69700000,.00005432,53.1582,34.3474,104.5675,255.5403,0,U,59426,999,12489,.40640341E-4,.4336E-4,0
STARLINK-31757,2024-065G,2026-06-05T00:00:02.000160,15.34346252,.0001017,53.1592,235.9696,78.1892,129.1922,0,U,59427,999,577,.12443E-2,.41828E-3,0
